CCSDS_OMM_VERS = 2.0
CREATION_DATE  = 
ORIGINATOR     = 

OBJECT_NAME    = CZ-2C R/B
OBJECT_ID      = 2022-058K
CENTER_NAME    = EARTH
REF_FRAME      = TEME
TIME_SYSTEM    = UTC
MEAN_ELEMENT_THEORY = SGP/SGP4

EPOCH          = 2025-12-01T13:49:32.703744
MEAN_MOTION    = 15.47664206
ECCENTRICITY   = .00467824
INCLINATION    = 50.1898
RA_OF_ASC_NODE = 100.4472
ARG_OF_PERICENTER = 152.3662
MEAN_ANOMALY   = 207.9806

EPHEMERIS_TYPE = 0
CLASSIFICATION_TYPE = U
NORAD_CAT_ID   = 52794
ELEMENT_SET_NO = 999
REV_AT_EPOCH   = 19490
BSTAR          = .57044968E-3
MEAN_MOTION_DOT = .31009E-3
MEAN_MOTION_DDOT = 0

CCSDS_OMM_VERS = 2.0
CREATION_DATE  = 
ORIGINATOR     = 

OBJECT_NAME    = CZ-2C R/B
OBJECT_ID      = 2022-132E
CENTER_NAME    = EARTH
REF_FRAME      = TEME
TIME_SYSTEM    = UTC
MEAN_ELEMENT_THEORY = SGP/SGP4

EPOCH          = 2025-12-01T23:36:44.705664
MEAN_MOTION    = 15.53791244
ECCENTRICITY   = .00239113
INCLINATION    = 97.2943
RA_OF_ASC_NODE = 331.9852
ARG_OF_PERICENTER = 92.0340
MEAN_ANOMALY   = 268.3653

EPHEMERIS_TYPE = 0
CLASSIFICATION_TYPE = U
NORAD_CAT_ID   = 54039
ELEMENT_SET_NO = 999
REV_AT_EPOCH   = 17516
BSTAR          = .53542033E-3
MEAN_MOTION_DOT = .34775E-3
MEAN_MOTION_DDOT = 0

CCSDS_OMM_VERS = 2.0
CREATION_DATE  = 
ORIGINATOR     = 

OBJECT_NAME    = GSLV R/B
OBJECT_ID      = 2022-138AN
CENTER_NAME    = EARTH
REF_FRAME      = TEME
TIME_SYSTEM    = UTC
MEAN_ELEMENT_THEORY = SGP/SGP4

EPOCH          = 2025-12-02T03:41:43.709568
MEAN_MOTION    = 14.96040864
ECCENTRICITY   = .00230703
INCLINATION    = 87.3838
RA_OF_ASC_NODE = 199.0181
ARG_OF_PERICENTER = 140.6248
MEAN_ANOMALY   = 219.6666

EPHEMERIS_TYPE = 0
CLASSIFICATION_TYPE = U
NORAD_CAT_ID   = 54149
ELEMENT_SET_NO = 999
REV_AT_EPOCH   = 16934
BSTAR          = .29343507E-3
MEAN_MOTION_DOT = .3338E-4
MEAN_MOTION_DDOT = 0

CCSDS_OMM_VERS = 2.0
CREATION_DATE  = 
ORIGINATOR     = 

OBJECT_NAME    = XRISM
OBJECT_ID      = 2023-137A
CENTER_NAME    = EARTH
REF_FRAME      = TEME
TIME_SYSTEM    = UTC
MEAN_ELEMENT_THEORY = SGP/SGP4

EPOCH          = 2025-12-01T23:53:10.415616
MEAN_MOTION    = 15.10186331
ECCENTRICITY   = .00076321
INCLINATION    = 31.0004
RA_OF_ASC_NODE = 194.9098
ARG_OF_PERICENTER = 136.4899
MEAN_ANOMALY   = 223.6342

EPHEMERIS_TYPE = 0
CLASSIFICATION_TYPE = U
NORAD_CAT_ID   = 57800
ELEMENT_SET_NO = 999
REV_AT_EPOCH   = 12300
BSTAR          = .38616829E-3
MEAN_MOTION_DOT = .6562E-4
MEAN_MOTION_DDOT = 0

CCSDS_OMM_VERS = 2.0
CREATION_DATE  = 
ORIGINATOR     = 

OBJECT_NAME    = ACS3
OBJECT_ID      = 2024-077B
CENTER_NAME    = EARTH
REF_FRAME      = TEME
TIME_SYSTEM    = UTC
MEAN_ELEMENT_THEORY = SGP/SGP4

EPOCH          = 2025-12-01T20:18:08.816832
MEAN_MOTION    = 13.84666010
ECCENTRICITY   = .00765827
INCLINATION    = 97.2780
RA_OF_ASC_NODE = 293.8838
ARG_OF_PERICENTER = 0.6348
MEAN_ANOMALY   = 359.4897

EPHEMERIS_TYPE = 0
CLASSIFICATION_TYPE = U
NORAD_CAT_ID   = 59588
ELEMENT_SET_NO = 999
REV_AT_EPOCH   = 8063
BSTAR          = .12999462E-1
MEAN_MOTION_DOT = .14947E-3
MEAN_MOTION_DDOT = 0

