CZ-2C R/B               
1 52794U 22058K   25335.57607296  .00031009  00000+0  57045-3 0  9990
2 52794  50.1898 100.4472 0046782 152.3662 207.9806 15.47664206194906
CZ-2C R/B               
1 54039U 22132E   25335.98385076  .00034775  00000+0  53542-3 0  9992
2 54039  97.2943 331.9852 0023911  92.0340 268.3653 15.53791244175166
GSLV R/B                
1 54149U 22138AN  25336.15397812  .00003338  00000+0  29344-3 0  9995
2 54149  87.3838 199.0181 0023070 140.6248 219.6666 14.96040864169349
XRISM                   
1 57800U 23137A   25335.99525944  .00006562  00000+0  38617-3 0  9997
2 57800  31.0004 194.9098 0007632 136.4899 223.6342 15.10186331123005
ACS3                    
1 59588U 24077B   25335.84593538  .00014947  00000+0  12999-1 0  9993
2 59588  97.2780 293.8838 0076582   0.6348 359.4897 13.84666010 80637
